{
  "norad_id": 63067,
  "name": "STARLINK-33628",
  "history": [
    {
      "epoch": "2026-04-16T18:51:46.212192Z",
      "apogee_km": 483.90579392495147,
      "perigee_km": 482.1822652503197,
      "latitude_deg": 2.3266796348461865e-05,
      "longitude_deg": 164.26870622076117,
      "height_km": 482.81884102580034,
      "semi_major_axis_km": 6861.181029587635,
      "eccentricity": 0.0001256,
      "inclination_deg": 42.9995,
      "raan_deg": 292.1399,
      "arg_perigee_deg": 270.1138,
      "mean_anomaly_deg": 89.957,
      "mean_motion_rev_day": 15.27581692
    },
    {
      "epoch": "2026-04-17T21:32:25.792800Z",
      "apogee_km": 484.27007432170467,
      "perigee_km": 481.700721206189,
      "latitude_deg": -5.73259135090385e-05,
      "longitude_deg": 116.73028990201061,
      "height_km": 482.8696982145131,
      "semi_major_axis_km": 6861.1223977639465,
      "eccentricity": 0.00018724,
      "inclination_deg": 43.0017,
      "raan_deg": 285.8621,
      "arg_perigee_deg": 265.2201,
      "mean_anomaly_deg": 94.8436,
      "mean_motion_rev_day": 15.27601273
    },
    {
      "epoch": "2026-04-18T17:56:27.248640Z",
      "apogee_km": 484.75294896430387,
      "perigee_km": 481.16596773587753,
      "latitude_deg": -7.408353243690522e-06,
      "longitude_deg": 165.08586240725546,
      "height_km": 482.9429971052057,
      "semi_major_axis_km": 6861.09645835009,
      "eccentricity": 0.0002614,
      "inclination_deg": 43.0018,
      "raan_deg": 281.0615,
      "arg_perigee_deg": 263.4117,
      "mean_anomaly_deg": 96.6437,
      "mean_motion_rev_day": 15.27609936
    },
    {
      "epoch": "2026-04-19T20:37:07.160160Z",
      "apogee_km": 484.2367780977729,
      "perigee_km": 481.7969517834008,
      "latitude_deg": -1.0308190689327927e-05,
      "longitude_deg": 117.54664383954791,
      "height_km": 483.041007643969,
      "semi_major_axis_km": 6861.153864940587,
      "eccentricity": 0.0001778,
      "inclination_deg": 43.0017,
      "raan_deg": 274.7842,
      "arg_perigee_deg": 258.3178,
      "mean_anomaly_deg": 101.7474,
      "mean_motion_rev_day": 15.27590764
    },
    {
      "epoch": "2026-04-19T22:11:16.456128Z",
      "apogee_km": 484.33426506008345,
      "perigee_km": 481.6625389345454,
      "latitude_deg": -4.870045471490075e-05,
      "longitude_deg": 93.57402285618305,
      "height_km": 482.91156415150743,
      "semi_major_axis_km": 6861.135401997314,
      "eccentricity": 0.0001947,
      "inclination_deg": 43.0023,
      "raan_deg": 274.4148,
      "arg_perigee_deg": 264.1656,
      "mean_anomaly_deg": 95.8973,
      "mean_motion_rev_day": 15.2759693
    }
  ]
}